[{"OBJECT_NAME":"FENGYUN 1C DEB","OBJECT_ID":"1999-025ATM","EPOCH":"2026-03-03T23:37:38.079264","MEAN_MOTION":14.15693258,"ECCENTRICITY":0.0052085,"INCLINATION":98.8456,"RA_OF_ASC_NODE":126.6006,"ARG_OF_PERICENTER":220.9528,"MEAN_ANOMALY":264.2967,"EPHEMERIS_TYPE":0,"CLASSIFICATION_TYPE":"U","NORAD_CAT_ID":30751,"ELEMENT_SET_NO":999,"REV_AT_EPOCH":97425,"BSTAR":0.00162,"MEAN_MOTION_DOT":3.175e-5,"MEAN_MOTION_DDOT":0},{"OBJECT_NAME":"FENGYUN 1C DEB","OBJECT_ID":"1999-025ATP","EPOCH":"2026-03-04T01:55:19.602336","MEAN_MOTION":14.12969032,"ECCENTRICITY":0.0057817,"INCLINATION":98.7984,"RA_OF_ASC_NODE":105.3005,"ARG_OF_PERICENTER":124.7214,"MEAN_ANOMALY":235.9423,"EPHEMERIS_TYPE":0,"CLASSIFICATION_TYPE":"U","NORAD_CAT_ID":30753,"ELEMENT_SET_NO":999,"REV_AT_EPOCH":97500,"BSTAR":0.00098682,"MEAN_MOTION_DOT":1.826e-5,"MEAN_MOTION_DDOT":0},{"OBJECT_NAME":"FENGYUN 1C DEB","OBJECT_ID":"1999-025ATR","EPOCH":"2026-03-03T05:36:14.368896","MEAN_MOTION":14.45331832,"ECCENTRICITY":0.01518709,"INCLINATION":98.2642,"RA_OF_ASC_NODE":59.6402,"ARG_OF_PERICENTER":24.7337,"MEAN_ANOMALY":102.5362,"EPHEMERIS_TYPE":0,"CLASSIFICATION_TYPE":"U","NORAD_CAT_ID":30755,"ELEMENT_SET_NO":999,"REV_AT_EPOCH":99607,"BSTAR":0.00099269744,"MEAN_MOTION_DOT":3.974e-5,"MEAN_MOTION_DDOT":0},{"OBJECT_NAME":"FENGYUN 1C DEB","OBJECT_ID":"1999-025ATS","EPOCH":"2026-03-04T03:57:29.741184","MEAN_MOTION":14.18866189,"ECCENTRICITY":0.0073086,"INCLINATION":98.9816,"RA_OF_ASC_NODE":136.6441,"ARG_OF_PERICENTER":86.6378,"MEAN_ANOMALY":328.755,"EPHEMERIS_TYPE":0,"CLASSIFICATION_TYPE":"U","NORAD_CAT_ID":30756,"ELEMENT_SET_NO":999,"REV_AT_EPOCH":97559,"BSTAR":0.0015897,"MEAN_MOTION_DOT":3.354e-5,"MEAN_MOTION_DDOT":0},{"OBJECT_NAME":"FENGYUN 1C DEB","OBJECT_ID":"1999-025ATU","EPOCH":"2026-03-04T00:29:40.877664","MEAN_MOTION":14.17515785,"ECCENTRICITY":0.0041144,"INCLINATION":99.0198,"RA_OF_ASC_NODE":187.8992,"ARG_OF_PERICENTER":132.7774,"MEAN_ANOMALY":288.9912,"EPHEMERIS_TYPE":0,"CLASSIFICATION_TYPE":"U","NORAD_CAT_ID":30758,"ELEMENT_SET_NO":999,"REV_AT_EPOCH":97642,"BSTAR":0.0013179,"MEAN_MOTION_DOT":2.652e-5,"MEAN_MOTION_DDOT":0},{"OBJECT_NAME":"FENGYUN 1C DEB","OBJECT_ID":"1999-025ATV","EPOCH":"2026-03-03T19:42:29.259936","MEAN_MOTION":14.56554982,"ECCENTRICITY":0.0008665,"INCLINATION":99.2548,"RA_OF_ASC_NODE":184.2921,"ARG_OF_PERICENTER":262.669,"MEAN_ANOMALY":259.2679,"EPHEMERIS_TYPE":0,"CLASSIFICATION_TYPE":"U","NORAD_CAT_ID":30759,"ELEMENT_SET_NO":999,"REV_AT_EPOCH":98834,"BSTAR":0.0038042,"MEAN_MOTION_DOT":0.00016935,"MEAN_MOTION_DDOT":0},{"OBJECT_NAME":"FENGYUN 1C DEB","OBJECT_ID":"1999-025ATW","EPOCH":"2026-03-03T16:36:34.384896","MEAN_MOTION":14.05253362,"ECCENTRICITY":0.00539677,"INCLINATION":98.8282,"RA_OF_ASC_NODE":62.1925,"ARG_OF_PERICENTER":115.1606,"MEAN_ANOMALY":245.5173,"EPHEMERIS_TYPE":0,"CLASSIFICATION_TYPE":"U","NORAD_CAT_ID":30760,"ELEMENT_SET_NO":999,"REV_AT_EPOCH":97359,"BSTAR":0.0002696281,"MEAN_MOTION_DOT":3.99e-6,"MEAN_MOTION_DDOT":0},{"OBJECT_NAME":"FENGYUN 1C DEB","OBJECT_ID":"1999-025ATX","EPOCH":"2026-03-03T17:55:51.762432","MEAN_MOTION":14.36238321,"ECCENTRICITY":0.00853814,"INCLINATION":98.971,"RA_OF_ASC_NODE":357.09,"ARG_OF_PERICENTER":75.1169,"MEAN_ANOMALY":285.9452,"EPHEMERIS_TYPE":0,"CLASSIFICATION_TYPE":"U","NORAD_CAT_ID":30761,"ELEMENT_SET_NO":999,"REV_AT_EPOCH":98904,"BSTAR":0.0010922696,"MEAN_MOTION_DOT":3.278e-5,"MEAN_MOTION_DDOT":0},{"OBJECT_NAME":"FENGYUN 1C DEB","OBJECT_ID":"1999-025ATY","EPOCH":"2026-03-03T21:46:42.621600","MEAN_MOTION":13.98208517,"ECCENTRICITY":0.0199459,"INCLINATION":98.8823,"RA_OF_ASC_NODE":56.1136,"ARG_OF_PERICENTER":70.4552,"MEAN_ANOMALY":320.7302,"EPHEMERIS_TYPE":0,"CLASSIFICATION_TYPE":"U","NORAD_CAT_ID":30762,"ELEMENT_SET_NO":999,"REV_AT_EPOCH":96772,"BSTAR":0.000785,"MEAN_MOTION_DOT":1.284e-5,"MEAN_MOTION_DDOT":0},{"OBJECT_NAME":"FENGYUN 1C DEB","OBJECT_ID":"1999-025ATZ","EPOCH":"2026-03-04T03:52:12.482112","MEAN_MOTION":14.65183456,"ECCENTRICITY":0.0017368,"INCLINATION":98.8864,"RA_OF_ASC_NODE":145.809,"ARG_OF_PERICENTER":28.1696,"MEAN_ANOMALY":30.786,"EPHEMERIS_TYPE":0,"CLASSIFICATION_TYPE":"U","NORAD_CAT_ID":30763,"ELEMENT_SET_NO":999,"REV_AT_EPOCH":98335,"BSTAR":0.005961,"MEAN_MOTION_DOT":0.00032236,"MEAN_MOTION_DDOT":0},{"OBJECT_NAME":"FENGYUN 1C DEB","OBJECT_ID":"1999-025AUA","EPOCH":"2026-03-02T21:36:38.710656","MEAN_MOTION":15.36817917,"ECCENTRICITY":0.0061797,"INCLINATION":98.7847,"RA_OF_ASC_NODE":52.4365,"ARG_OF_PERICENTER":255.5907,"MEAN_ANOMALY":103.8469,"EPHEMERIS_TYPE":0,"CLASSIFICATION_TYPE":"U","NORAD_CAT_ID":30764,"ELEMENT_SET_NO":999,"REV_AT_EPOCH":2450,"BSTAR":0.0014209,"MEAN_MOTION_DOT":0.00054731,"MEAN_MOTION_DDOT":0},{"OBJECT_NAME":"FENGYUN 1C DEB","OBJECT_ID":"1999-025AUB","EPOCH":"2026-03-03T01:26:16.063296","MEAN_MOTION":14.1498213,"ECCENTRICITY":0.00663175,"INCLINATION":98.7782,"RA_OF_ASC_NODE":111.7916,"ARG_OF_PERICENTER":341.3803,"MEAN_ANOMALY":80.7519,"EPHEMERIS_TYPE":0,"CLASSIFICATION_TYPE":"U","NORAD_CAT_ID":30765,"ELEMENT_SET_NO":999,"REV_AT_EPOCH":97958,"BSTAR":0.00076606685,"MEAN_MOTION_DOT":1.47e-5,"MEAN_MOTION_DDOT":0},{"OBJECT_NAME":"FENGYUN 1C DEB","OBJECT_ID":"1999-025AUC","EPOCH":"2026-02-28T05:56:12.555456","MEAN_MOTION":14.09767889,"ECCENTRICITY":0.0081861,"INCLINATION":98.6756,"RA_OF_ASC_NODE":61.8263,"ARG_OF_PERICENTER":213.9144,"MEAN_ANOMALY":158.5847,"EPHEMERIS_TYPE":0,"CLASSIFICATION_TYPE":"U","NORAD_CAT_ID":30766,"ELEMENT_SET_NO":999,"REV_AT_EPOCH":63889,"BSTAR":0.00055482,"MEAN_MOTION_DOT":9.63e-6,"MEAN_MOTION_DDOT":0},{"OBJECT_NAME":"FENGYUN 1C DEB","OBJECT_ID":"1999-025AUE","EPOCH":"2026-03-03T23:49:44.580576","MEAN_MOTION":14.49345883,"ECCENTRICITY":0.0026076,"INCLINATION":98.6113,"RA_OF_ASC_NODE":159.3647,"ARG_OF_PERICENTER":207.866,"MEAN_ANOMALY":207.2033,"EPHEMERIS_TYPE":0,"CLASSIFICATION_TYPE":"U","NORAD_CAT_ID":30768,"ELEMENT_SET_NO":999,"REV_AT_EPOCH":99047,"BSTAR":0.002632,"MEAN_MOTION_DOT":0.00010063,"MEAN_MOTION_DDOT":0},{"OBJECT_NAME":"FENGYUN 1C DEB","OBJECT_ID":"1999-025AUG","EPOCH":"2026-03-03T23:44:09.398688","MEAN_MOTION":14.15794941,"ECCENTRICITY":0.0014639,"INCLINATION":98.6561,"RA_OF_ASC_NODE":71.6977,"ARG_OF_PERICENTER":54.9573,"MEAN_ANOMALY":333.4079,"EPHEMERIS_TYPE":0,"CLASSIFICATION_TYPE":"U","NORAD_CAT_ID":30770,"ELEMENT_SET_NO":999,"REV_AT_EPOCH":98057,"BSTAR":0.00039593,"MEAN_MOTION_DOT":7.36e-6,"MEAN_MOTION_DDOT":0},{"OBJECT_NAME":"FENGYUN 1C DEB","OBJECT_ID":"1999-025AUH","EPOCH":"2026-03-03T20:10:18.337728","MEAN_MOTION":14.44713332,"ECCENTRICITY":0.0024796,"INCLINATION":98.9093,"RA_OF_ASC_NODE":46.8173,"ARG_OF_PERICENTER":55.1012,"MEAN_ANOMALY":305.2503,"EPHEMERIS_TYPE":0,"CLASSIFICATION_TYPE":"U","NORAD_CAT_ID":30771,"ELEMENT_SET_NO":999,"REV_AT_EPOCH":98234,"BSTAR":0.0035067,"MEAN_MOTION_DOT":0.00012182,"MEAN_MOTION_DDOT":0},{"OBJECT_NAME":"FENGYUN 1C DEB","OBJECT_ID":"1999-025AUL","EPOCH":"2026-03-03T18:34:07.578048","MEAN_MOTION":14.33334024,"ECCENTRICITY":0.00215811,"INCLINATION":98.8304,"RA_OF_ASC_NODE":156.1486,"ARG_OF_PERICENTER":162.206,"MEAN_ANOMALY":358.3508,"EPHEMERIS_TYPE":0,"CLASSIFICATION_TYPE":"U","NORAD_CAT_ID":30802,"ELEMENT_SET_NO":999,"REV_AT_EPOCH":98363,"BSTAR":0.0021578926,"MEAN_MOTION_DOT":5.919e-5,"MEAN_MOTION_DDOT":0},{"OBJECT_NAME":"FENGYUN 1C DEB","OBJECT_ID":"1999-025AUM","EPOCH":"2026-03-04T01:28:27.643584","MEAN_MOTION":14.11706036,"ECCENTRICITY":0.0104008,"INCLINATION":99.2369,"RA_OF_ASC_NODE":103.6488,"ARG_OF_PERICENTER":334.7154,"MEAN_ANOMALY":54.2412,"EPHEMERIS_TYPE":0,"CLASSIFICATION_TYPE":"U","NORAD_CAT_ID":30803,"ELEMENT_SET_NO":999,"REV_AT_EPOCH":97146,"BSTAR":0.0015076,"MEAN_MOTION_DOT":2.841e-5,"MEAN_MOTION_DDOT":0},{"OBJECT_NAME":"FENGYUN 1C DEB","OBJECT_ID":"1999-025AUN","EPOCH":"2026-03-04T04:26:58.284384","MEAN_MOTION":14.54988717,"ECCENTRICITY":0.0183475,"INCLINATION":98.881,"RA_OF_ASC_NODE":138.7783,"ARG_OF_PERICENTER":303.823,"MEAN_ANOMALY":110.7427,"EPHEMERIS_TYPE":0,"CLASSIFICATION_TYPE":"U","NORAD_CAT_ID":30804,"ELEMENT_SET_NO":999,"REV_AT_EPOCH":656,"BSTAR":0.0003788,"MEAN_MOTION_DOT":1.98e-5,"MEAN_MOTION_DDOT":0},{"OBJECT_NAME":"FENGYUN 1C DEB","OBJECT_ID":"1999-025AUP","EPOCH":"2026-03-04T02:07:43.124448","MEAN_MOTION":14.03127925,"ECCENTRICITY":0.0072203,"INCLINATION":98.8099,"RA_OF_ASC_NODE":108.2024,"ARG_OF_PERICENTER":58.3312,"MEAN_ANOMALY":330.6328,"EPHEMERIS_TYPE":0,"CLASSIFICATION_TYPE":"U","NORAD_CAT_ID":30805,"ELEMENT_SET_NO":999,"REV_AT_EPOCH":97101,"BSTAR":0.00049875,"MEAN_MOTION_DOT":7.52e-6,"MEAN_MOTION_DDOT":0},{"OBJECT_NAME":"FENGYUN 1C DEB","OBJECT_ID":"1999-025AUQ","EPOCH":"2026-03-03T00:30:38.154816","MEAN_MOTION":13.70570932,"ECCENTRICITY":0.02664418,"INCLINATION":99.0298,"RA_OF_ASC_NODE":88.7996,"ARG_OF_PERICENTER":278.6764,"MEAN_ANOMALY":107.8298,"EPHEMERIS_TYPE":0,"CLASSIFICATION_TYPE":"U","NORAD_CAT_ID":30806,"ELEMENT_SET_NO":999,"REV_AT_EPOCH":94795,"BSTAR":0.00084173415,"MEAN_MOTION_DOT":9.16e-6,"MEAN_MOTION_DDOT":0},{"OBJECT_NAME":"FENGYUN 1C DEB","OBJECT_ID":"1999-025AUT","EPOCH":"2026-03-03T22:25:57.341280","MEAN_MOTION":14.2995828,"ECCENTRICITY":0.0049031,"INCLINATION":98.7826,"RA_OF_ASC_NODE":157.6817,"ARG_OF_PERICENTER":292.9689,"MEAN_ANOMALY":66.6324,"EPHEMERIS_TYPE":0,"CLASSIFICATION_TYPE":"U","NORAD_CAT_ID":30809,"ELEMENT_SET_NO":999,"REV_AT_EPOCH":98247,"BSTAR":0.001794,"MEAN_MOTION_DOT":4.642e-5,"MEAN_MOTION_DDOT":0},{"OBJECT_NAME":"FENGYUN 1C DEB","OBJECT_ID":"1999-025AUU","EPOCH":"2026-03-04T03:42:09.539712","MEAN_MOTION":14.0555299,"ECCENTRICITY":0.018152,"INCLINATION":98.661,"RA_OF_ASC_NODE":236.4412,"ARG_OF_PERICENTER":186.459,"MEAN_ANOMALY":173.4237,"EPHEMERIS_TYPE":0,"CLASSIFICATION_TYPE":"U","NORAD_CAT_ID":30810,"ELEMENT_SET_NO":999,"REV_AT_EPOCH":95526,"BSTAR":0.0079058,"MEAN_MOTION_DOT":0.00014896,"MEAN_MOTION_DDOT":0}]
